[
    {
        "Altitude(m)": 605470.7745349564,
        "Argument of Periapsis(deg)": 0.0,
        "Eccentricity": 0.0,
        "Inclination(deg)": 60.0,
        "Latitude(deg)": 27.98815593910506,
        "Longitude(deg)": 172.26299510245818,
        "Mean Anomaly(deg)": 147.27270000000001,
        "RAAN(deg)": 110.00000000000001,
        "Satellite Name": "Test1 493",
        "Satellite Number": 493,
        "Semi-Major Axis(m)": 6980739.136638005,
        "Time(s)": 0
    },
    {
        "Altitude(m)": 605395.8124377452,
        "Argument of Periapsis(deg)": 0.00010418945913296404,
        "Eccentricity": 0.0,
        "Inclination(deg)": 60.0,
        "Latitude(deg)": 27.47384606925131,
        "Longitude(deg)": 172.61618168444284,
        "Mean Anomaly(deg)": 147.8928061454618,
        "RAAN(deg)": 109.99957995086025,
        "Satellite Name": "Test1 493",
        "Satellite Number": 493,
        "Semi-Major Axis(m)": 6980739.136638005,
        "Time(s)": 10
    },
    {
        "Altitude(m)": 605322.6530113836,
        "Argument of Periapsis(deg)": 0.0002083789182659281,
        "Eccentricity": 0.0,
        "Inclination(deg)": 60.0,
        "Latitude(deg)": 26.958390411564352,
        "Longitude(deg)": 172.96572007278206,
        "Mean Anomaly(deg)": 148.51291229092362,
        "RAAN(deg)": 109.99915990172053,
        "Satellite Name": "Test1 493",
        "Satellite Number": 493,
        "Semi-Major Axis(m)": 6980739.136638005,
        "Time(s)": 20
    },
    {
        "Altitude(m)": 605251.3519303707,
        "Argument of Periapsis(deg)": 0.00031256837739889213,
        "Eccentricity": 0.0,
        "Inclination(deg)": 60.0,
        "Latitude(deg)": 26.44182346823459,
        "Longitude(deg)": 173.31171491713454,
        "Mean Anomaly(deg)": 149.1330184363855,
        "RAAN(deg)": 109.99873985258077,
        "Satellite Name": "Test1 493",
        "Satellite Number": 493,
        "Semi-Major Axis(m)": 6980739.136638005,
        "Time(s)": 30
    },
    {
        "Altitude(m)": 605181.9641412678,
        "Argument of Periapsis(deg)": 0.0004167578365318562,
        "Eccentricity": 0.0,
        "Inclination(deg)": 60.0,
        "Latitude(deg)": 25.924178887161165,
        "Longitude(deg)": 173.6542691346746,
        "Mean Anomaly(deg)": 149.75312458184726,
        "RAAN(deg)": 109.99831980344105,
        "Satellite Name": "Test1 493",
        "Satellite Number": 493,
        "Semi-Major Axis(m)": 6980739.136638005,
        "Time(s)": 40
    },
    {
        "Altitude(m)": 605114.5438337504,
        "Argument of Periapsis(deg)": 0.0005209472956648203,
        "Eccentricity": 0.0,
        "Inclination(deg)": 60.0,
        "Latitude(deg)": 25.405489494507645,
        "Longitude(deg)": 173.99348296621517,
        "Mean Anomaly(deg)": 150.37323072730916,
        "RAAN(deg)": 109.9978997543013,
        "Satellite Name": "Test1 493",
        "Satellite Number": 493,
        "Semi-Major Axis(m)": 6980739.136638005,
        "Time(s)": 50
    },
    {
        "Altitude(m)": 605049.1444119747,
        "Argument of Periapsis(deg)": 0.0006251367547977843,
        "Eccentricity": 0.0,
        "Inclination(deg)": 60.0,
        "Latitude(deg)": 24.885787326139017,
        "Longitude(deg)": 174.3294545444061,
        "Mean Anomaly(deg)": 150.99333687277095,
        "RAAN(deg)": 109.99747970516154,
        "Satellite Name": "Test1 493",
        "Satellite Number": 493,
        "Semi-Major Axis(m)": 6980739.136638005,
        "Time(s)": 60
    },
    {
        "Altitude(m)": 604985.8184663131,
        "Argument of Periapsis(deg)": 0.0007293262139307483,
        "Eccentricity": 0.0,
        "Inclination(deg)": 60.0,
        "Latitude(deg)": 24.36510365798098,
        "Longitude(deg)": 174.66228046107494,
        "Mean Anomaly(deg)": 151.6134430182328,
        "RAAN(deg)": 109.99705965602182,
        "Satellite Name": "Test1 493",
        "Satellite Number": 493,
        "Semi-Major Axis(m)": 6980739.136638005,
        "Time(s)": 70
    },
    {
        "Altitude(m)": 604924.6177454302,
        "Argument of Periapsis(deg)": 0.0008335156730637124,
        "Eccentricity": 0.0,
        "Inclination(deg)": 60.0,
        "Latitude(deg)": 23.843469035343112,
        "Longitude(deg)": 174.99205482078924,
        "Mean Anomaly(deg)": 152.23354916369462,
        "RAAN(deg)": 109.99663960688206,
        "Satellite Name": "Test1 493",
        "Satellite Number": 493,
        "Semi-Major Axis(m)": 6980739.136638005,
        "Time(s)": 80
    },
    {
        "Altitude(m)": 604865.5931287372,
        "Argument of Periapsis(deg)": 0.0009377051321966765,
        "Eccentricity": 0.0,
        "Inclination(deg)": 60.0,
        "Latitude(deg)": 23.320913301237784,
        "Longitude(deg)": 175.3188698063469,
        "Mean Anomaly(deg)": 152.85365530915647,
        "RAAN(deg)": 109.99621955774234,
        "Satellite Name": "Test1 493",
        "Satellite Number": 493,
        "Semi-Major Axis(m)": 6980739.136638005,
        "Time(s)": 90
    },
    {
        "Altitude(m)": 604808.7945992168,
        "Argument of Periapsis(deg)": 0.0010418945913296407,
        "Eccentricity": 0.0,
        "Inclination(deg)": 60.0,
        "Latitude(deg)": 22.79746562373389,
        "Longitude(deg)": 175.6428162432912,
        "Mean Anomaly(deg)": 153.47376145461826,
        "RAAN(deg)": 109.99579950860257,
        "Satellite Name": "Test1 493",
        "Satellite Number": 493,
        "Semi-Major Axis(m)": 6980739.136638005,
        "Time(s)": 100
    },
    {
        "Altitude(m)": 604754.2712166694,
        "Argument of Periapsis(deg)": 0.0011460840504626045,
        "Eccentricity": 0.0,
        "Inclination(deg)": 60.0,
        "Latitude(deg)": 22.273154522384427,
        "Longitude(deg)": 175.96398265055137,
        "Mean Anomaly(deg)": 154.09386760008013,
        "RAAN(deg)": 109.99537945946282,
        "Satellite Name": "Test1 493",
        "Satellite Number": 493,
        "Semi-Major Axis(m)": 6980739.136638005,
        "Time(s)": 110
    },
    {
        "Altitude(m)": 604702.0710913558,
        "Argument of Periapsis(deg)": 0.0012502735095955685,
        "Eccentricity": 0.0,
        "Inclination(deg)": 60.0,
        "Latitude(deg)": 21.748007893757542,
        "Longitude(deg)": 176.28245580293913,
        "Mean Anomaly(deg)": 154.71397374554198,
        "RAAN(deg)": 109.99495941032308,
        "Satellite Name": "Test1 493",
        "Satellite Number": 493,
        "Semi-Major Axis(m)": 6980739.136638005,
        "Time(s)": 120
    },
    {
        "Altitude(m)": 604652.2413580918,
        "Argument of Periapsis(deg)": 0.0013544629687285324,
        "Eccentricity": 0.0,
        "Inclination(deg)": 60.0,
        "Latitude(deg)": 21.222053036107237,
        "Longitude(deg)": 176.59832129261585,
        "Mean Anomaly(deg)": 155.33407989100374,
        "RAAN(deg)": 109.99453936118334,
        "Satellite Name": "Test1 493",
        "Satellite Number": 493,
        "Semi-Major Axis(m)": 6980739.136638005,
        "Time(s)": 130
    },
    {
        "Altitude(m)": 604604.8281507504,
        "Argument of Periapsis(deg)": 0.0014586524278614966,
        "Eccentricity": 0.0,
        "Inclination(deg)": 60.0,
        "Latitude(deg)": 20.6953166732209,
        "Longitude(deg)": 176.91166257665046,
        "Mean Anomaly(deg)": 155.95418603646564,
        "RAAN(deg)": 109.9941193120436,
        "Satellite Name": "Test1 493",
        "Satellite Number": 493,
        "Semi-Major Axis(m)": 6980739.136638005,
        "Time(s)": 140
    },
    {
        "Altitude(m)": 604559.8765772631,
        "Argument of Periapsis(deg)": 0.0015628418869944607,
        "Eccentricity": 0.0,
        "Inclination(deg)": 60.0,
        "Latitude(deg)": 20.167824977470147,
        "Longitude(deg)": 177.22256153641277,
        "Mean Anomaly(deg)": 156.57429218192743,
        "RAAN(deg)": 109.99369926290386,
        "Satellite Name": "Test1 493",
        "Satellite Number": 493,
        "Semi-Major Axis(m)": 6980739.136638005,
        "Time(s)": 150
    },
    {
        "Altitude(m)": 604517.4306950519,
        "Argument of Periapsis(deg)": 0.0016670313461274247,
        "Eccentricity": 0.0,
        "Inclination(deg)": 60.0,
        "Latitude(deg)": 19.639603592098595,
        "Longitude(deg)": 177.53109903593207,
        "Mean Anomaly(deg)": 157.19439832738928,
        "RAAN(deg)": 109.99327921376411,
        "Satellite Name": "Test1 493",
        "Satellite Number": 493,
        "Semi-Major Axis(m)": 6980739.136638005,
        "Time(s)": 160
    },
    {
        "Altitude(m)": 604477.5334869773,
        "Argument of Periapsis(deg)": 0.0017712208052603888,
        "Eccentricity": 0.0,
        "Inclination(deg)": 60.0,
        "Latitude(deg)": 19.110677652781828,
        "Longitude(deg)": 177.83735396635296,
        "Mean Anomaly(deg)": 157.8145044728511,
        "RAAN(deg)": 109.99285916462438,
        "Satellite Name": "Test1 493",
        "Satellite Number": 493,
        "Semi-Major Axis(m)": 6980739.136638005,
        "Time(s)": 170
    },
    {
        "Altitude(m)": 604440.2268377531,
        "Argument of Periapsis(deg)": 0.001875410264393353,
        "Eccentricity": 0.0,
        "Inclination(deg)": 60.0,
        "Latitude(deg)": 18.581071808482083,
        "Longitude(deg)": 178.1414038022446,
        "Mean Anomaly(deg)": 158.43461061831295,
        "RAAN(deg)": 109.99243911548463,
        "Satellite Name": "Test1 493",
        "Satellite Number": 493,
        "Semi-Major Axis(m)": 6980739.136638005,
        "Time(s)": 180
    },
    {
        "Altitude(m)": 604405.5515109021,
        "Argument of Periapsis(deg)": 0.0019795997235263173,
        "Eccentricity": 0.0,
        "Inclination(deg)": 60.0,
        "Latitude(deg)": 18.05081024163049,
        "Longitude(deg)": 178.44332515690385,
        "Mean Anomaly(deg)": 159.0547167637748,
        "RAAN(deg)": 109.9920190663449,
        "Satellite Name": "Test1 493",
        "Satellite Number": 493,
        "Semi-Major Axis(m)": 6980739.136638005,
        "Time(s)": 190
    }
]